{"type": "FeatureCollection", "features": [ {"type": "Feature", "properties": {"norad_id": 34626, "name": "COSMOS 2251 DEB", "group": "cosmos-2251-debris", "lat": -15.643877383779731, "lon": 166.6957213814244, "alt_km": 668.9952959584316, "timestamp": "2025-12-03T08:58:46.397778+00:00", "meta": {"OBJECT_NAME": "COSMOS 2251 DEB", "OBJECT_ID": "1993-036WX", "EPOCH": "2025-12-03T03:31:34.556736", "MEAN_MOTION": 14.7201027, "ECCENTRICITY": 0.0026157, "INCLINATION": 74.048, "RA_OF_ASC_NODE": 342.543, "ARG_OF_PERICENTER": 73.9853, "MEAN_ANOMALY": 358.3398, "EPHEMERIS_TYPE": 0, "CLASSIFICATION_TYPE": "U", "NORAD_CAT_ID": 34626, "ELEMENT_SET_NO": 999, "REV_AT_EPOCH": 89003, "BSTAR": 0.0011851, "MEAN_MOTION_DOT": 7.457e-05, "MEAN_MOTION_DDOT": 0}, "tle": {"line1": "1 34626U 93036WX  25337.14692774  .00007457  00000+0  11851-2 0  9992", "line2": "2 34626  74.0480 342.5430 0026157  73.9853 358.3398 14.72010270890036"}}, "geometry": {"type": "Point", "coordinates": [166.6957213814244, -15.643877383779731]}}, {"type": "Feature", "properties": {"norad_id": 34634, "name": "COSMOS 2251 DEB", "group": "cosmos-2251-debris", "lat": -16.757741831907964, "lon": -122.35781988048764, "alt_km": 685.7916643105136, "timestamp": "2025-12-03T08:58:46.397789+00:00", "meta": {"OBJECT_NAME": "COSMOS 2251 DEB", "OBJECT_ID": "1993-036XF", "EPOCH": "2025-12-03T04:55:03.888768", "MEAN_MOTION": 14.55607531, "ECCENTRICITY": 0.0044716, "INCLINATION": 74.0529, "RA_OF_ASC_NODE": 53.0232, "ARG_OF_PERICENTER": 163.1109, "MEAN_ANOMALY": 227.4386, "EPHEMERIS_TYPE": 0, "CLASSIFICATION_TYPE": "U", "NORAD_CAT_ID": 34634, "ELEMENT_SET_NO": 999, "REV_AT_EPOCH": 88643, "BSTAR": 0.00055498, "MEAN_MOTION_DOT": 2.426e-05, "MEAN_MOTION_DDOT": 0}, "tle": {"line1": "1 34634U 93036XF  25337.20490612  .00002426  00000+0  55498-3 0  9992", "line2": "2 34634  74.0529  53.0232 0044716 163.1109 227.4386 14.55607531886435"}}, "geometry": {"type": "Point", "coordinates": [-122.35781988048764, -16.757741831907964]}}, {"type": "Feature", "properties": {"norad_id": 34635, "name": "COSMOS 2251 DEB", "group": "cosmos-2251-debris", "lat": -3.083998759062353, "lon": 87.9266031722274, "alt_km": 690.4647796577829, "timestamp": "2025-12-03T08:58:46.397799+00:00", "meta": {"OBJECT_NAME": "COSMOS 2251 DEB", "OBJECT_ID": "1993-036XG", "EPOCH": "2025-12-03T02:41:57.909120", "MEAN_MOTION": 14.6801743, "ECCENTRICITY": 0.0029637, "INCLINATION": 74.0453, "RA_OF_ASC_NODE": 89.315, "ARG_OF_PERICENTER": 161.1639, "MEAN_ANOMALY": 253.5091, "EPHEMERIS_TYPE": 0, "CLASSIFICATION_TYPE": "U", "NORAD_CAT_ID": 34635, "ELEMENT_SET_NO": 999, "REV_AT_EPOCH": 73078, "BSTAR": 0.0020778, "MEAN_MOTION_DOT": 0.00011983, "MEAN_MOTION_DDOT": 0}, "tle": {"line1": "1 34635U 93036XG  25337.11247580  .00011983  00000+0  20778-2 0  9997", "line2": "2 34635  74.0453  89.3150 0029637 161.1639 253.5091 14.68017430730780"}}, "geometry": {"type": "Point", "coordinates": [87.9266031722274, -3.083998759062353]}}, {"type": "Feature", "properties": {"norad_id": 34637, "name": "COSMOS 2251 DEB", "group": "cosmos-2251-debris", "lat": 70.94078157783275, "lon": -116.87133877324419, "alt_km": 686.6775606932179, "timestamp": "2025-12-03T08:58:46.397810+00:00", "meta": {"OBJECT_NAME": "COSMOS 2251 DEB", "OBJECT_ID": "1993-036XJ", "EPOCH": "2025-12-02T19:54:25.337088", "MEAN_MOTION": 14.5992611, "ECCENTRICITY": 0.0050714, "INCLINATION": 74.0476, "RA_OF_ASC_NODE": 120.0531, "ARG_OF_PERICENTER": 192.798, "MEAN_ANOMALY": 286.7502, "EPHEMERIS_TYPE": 0, "CLASSIFICATION_TYPE": "U", "NORAD_CAT_ID": 34637, "ELEMENT_SET_NO": 999, "REV_AT_EPOCH": 88382, "BSTAR": 0.0015307, "MEAN_MOTION_DOT": 7.445e-05, "MEAN_MOTION_DDOT": 0}, "tle": {"line1": "1 34637U 93036XJ  25336.82945992  .00007445  00000+0  15307-2 0  9998", "line2": "2 34637  74.0476 120.0531 0050714 192.7980 286.7502 14.59926110883825"}}, "geometry": {"type": "Point", "coordinates": [-116.87133877324419, 70.94078157783275]}}, {"type": "Feature", "properties": {"norad_id": 34641, "name": "COSMOS 2251 DEB", "group": "cosmos-2251-debris", "lat": 3.4338545655185344, "lon": 100.49872759986326, "alt_km": 709.6451882019801, "timestamp": "2025-12-03T08:58:46.397820+00:00", "meta": {"OBJECT_NAME": "COSMOS 2251 DEB", "OBJECT_ID": "1993-036XN", "EPOCH": "2025-12-02T10:04:27.186240", "MEAN_MOTION": 14.51860624, "ECCENTRICITY": 0.00174848, "INCLINATION": 73.8377, "RA_OF_ASC_NODE": 101.3202, "ARG_OF_PERICENTER": 19.4191, "MEAN_ANOMALY": 38.0033, "EPHEMERIS_TYPE": 0, "CLASSIFICATION_TYPE": "U", "NORAD_CAT_ID": 34641, "ELEMENT_SET_NO": 999, "REV_AT_EPOCH": 88106, "BSTAR": 0.0013562566, "MEAN_MOTION_DOT": 5.449e-05, "MEAN_MOTION_DDOT": 0}, "tle": {"line1": "1 34641U 93036XN  25336.41975910  .00005449  00000+0  13563-2 0  9995", "line2": "2 34641  73.8377 101.3202 0017484  19.4191  38.0033 14.51860624881060"}}, "geometry": {"type": "Point", "coordinates": [100.49872759986326, 3.4338545655185344]}}, {"type": "Feature", "properties": {"norad_id": 34642, "name": "COSMOS 2251 DEB", "group": "cosmos-2251-debris", "lat": 65.22346213899101, "lon": 34.44347025039163, "alt_km": 932.5269950930833, "timestamp": "2025-12-03T08:58:46.397831+00:00", "meta": {"OBJECT_NAME": "COSMOS 2251 DEB", "OBJECT_ID": "1993-036XP", "EPOCH": "2025-12-02T19:45:27.852192", "MEAN_MOTION": 13.98924503, "ECCENTRICITY": 0.0208154, "INCLINATION": 74.0054, "RA_OF_ASC_NODE": 356.9781, "ARG_OF_PERICENTER": 179.0772, "MEAN_ANOMALY": 0.7028, "EPHEMERIS_TYPE": 0, "CLASSIFICATION_TYPE": "U", "NORAD_CAT_ID": 34642, "ELEMENT_SET_NO": 999, "REV_AT_EPOCH": 85154, "BSTAR": 0.0013075, "MEAN_MOTION_DOT": 2.249e-05, "MEAN_MOTION_DDOT": 0}, "tle": {"line1": "1 34642U 93036XP  25336.82323903  .00002249  00000+0  13075-2 0  9993", "line2": "2 34642  74.0054 356.9781 0208154 179.0772   0.7028 13.98924503851547"}}, "geometry": {"type": "Point", "coordinates": [34.44347025039163, 65.22346213899101]}}, {"type": "Feature", "properties": {"norad_id": 34671, "name": "COSMOS 2251 DEB", "group": "cosmos-2251-debris", "lat": -30.86148236725981, "lon": 142.51429349540197, "alt_km": 678.5220050974303, "timestamp": "2025-12-03T08:58:46.397841+00:00", "meta": {"OBJECT_NAME": "COSMOS 2251 DEB", "OBJECT_ID": "1993-036XR", "EPOCH": "2025-12-02T18:28:46.543296", "MEAN_MOTION": 14.66635987, "ECCENTRICITY": 0.0012139, "INCLINATION": 74.0249, "RA_OF_ASC_NODE": 153.5364, "ARG_OF_PERICENTER": 231.9142, "MEAN_ANOMALY": 147.1832, "EPHEMERIS_TYPE": 0, "CLASSIFICATION_TYPE": "U", "NORAD_CAT_ID": 34671, "ELEMENT_SET_NO": 999, "REV_AT_EPOCH": 88151, "BSTAR": 0.0019193, "MEAN_MOTION_DOT": 0.00010666, "MEAN_MOTION_DDOT": 0}, "tle": {"line1": "1 34671U 93036XR  25336.76998314  .00010666  00000+0  19193-2 0  9991", "line2": "2 34671  74.0249 153.5364 0012139 231.9142 147.1832 14.66635987881518"}}, "geometry": {"type": "Point", "coordinates": [142.51429349540197, -30.86148236725981]}}, {"type": "Feature", "properties": {"norad_id": 34672, "name": "COSMOS 2251 DEB", "group": "cosmos-2251-debris", "lat": 73.97209393409125, "lon": 57.528490162633574, "alt_km": 753.269306292148, "timestamp": "2025-12-03T08:58:46.397851+00:00", "meta": {"OBJECT_NAME": "COSMOS 2251 DEB", "OBJECT_ID": "1993-036XS", "EPOCH": "2025-11-27T17:59:07.575072", "MEAN_MOTION": 14.36372529, "ECCENTRICITY": 0.00231464, "INCLINATION": 74.0336, "RA_OF_ASC_NODE": 333.1322, "ARG_OF_PERICENTER": 49.1675, "MEAN_ANOMALY": 128.2584, "EPHEMERIS_TYPE": 0, "CLASSIFICATION_TYPE": "U", "NORAD_CAT_ID": 34672, "ELEMENT_SET_NO": 999, "REV_AT_EPOCH": 64962, "BSTAR": 0.00025061703, "MEAN_MOTION_DOT": 7.1e-06, "MEAN_MOTION_DDOT": 0}, "tle": {"line1": "1 34672U 93036XS  25331.74939323  .00000710  00000+0  25062-3 0  9992", "line2": "2 34672  74.0336 333.1322 0023146  49.1675 128.2584 14.36372529649621"}}, "geometry": {"type": "Point", "coordinates": [57.528490162633574, 73.97209393409125]}}, {"type": "Feature", "properties": {"norad_id": 34678, "name": "COSMOS 2251 DEB", "group": "cosmos-2251-debris", "lat": 49.55565921859238, "lon": -176.8987286999035, "alt_km": 776.0845937284448, "timestamp": "2025-12-03T08:58:46.397861+00:00", "meta": {"OBJECT_NAME": "COSMOS 2251 DEB", "OBJECT_ID": "1993-036XY", "EPOCH": "2025-12-03T03:29:39.368256", "MEAN_MOTION": 14.30062436, "ECCENTRICITY": 0.0024252, "INCLINATION": 74.0383, "RA_OF_ASC_NODE": 23.1356, "ARG_OF_PERICENTER": 75.4008, "MEAN_ANOMALY": 315.8045, "EPHEMERIS_TYPE": 0, "CLASSIFICATION_TYPE": "U", "NORAD_CAT_ID": 34678, "ELEMENT_SET_NO": 999, "REV_AT_EPOCH": 87242, "BSTAR": 4.3306e-05, "MEAN_MOTION_DOT": 8.7e-07, "MEAN_MOTION_DDOT": 0}, "tle": {"line1": "1 34678U 93036XY  25337.14559454  .00000087  00000+0  43306-4 0  9990", "line2": "2 34678  74.0383  23.1356 0024252  75.4008 315.8045 14.30062436872422"}}, "geometry": {"type": "Point", "coordinates": [-176.8987286999035, 49.55565921859238]}}, {"type": "Feature", "properties": {"norad_id": 34680, "name": "COSMOS 2251 DEB", "group": "cosmos-2251-debris", "lat": 69.67002798883564, "lon": -82.82515139378029, "alt_km": 688.3668698525089, "timestamp": "2025-12-03T08:58:46.397872+00:00", "meta": {"OBJECT_NAME": "COSMOS 2251 DEB", "OBJECT_ID": "1993-036YA", "EPOCH": "2025-12-02T11:16:46.526880", "MEAN_MOTION": 14.6043687, "ECCENTRICITY": 0.00070971, "INCLINATION": 74.0418, "RA_OF_ASC_NODE": 149.4617, "ARG_OF_PERICENTER": 243.0574, "MEAN_ANOMALY": 147.946, "EPHEMERIS_TYPE": 0, "CLASSIFICATION_TYPE": "U", "NORAD_CAT_ID": 34680, "ELEMENT_SET_NO": 999, "REV_AT_EPOCH": 88178, "BSTAR": 0.0013755581, "MEAN_MOTION_DOT": 6.644e-05, "MEAN_MOTION_DDOT": 0}, "tle": {"line1": "1 34680U 93036YA  25336.46998295  .00006644  00000+0  13756-2 0  9996", "line2": "2 34680  74.0418 149.4617 0007097 243.0574 147.9460 14.60436870881789"}}, "geometry": {"type": "Point", "coordinates": [-82.82515139378029, 69.67002798883564]}}]}